{
  "type": "FeatureCollection",
  "name": "places-949",
  "features": [
    {
      "type": "Feature",
      "properties": { "id": "place-kaifeng-949", "locationId": "kaifeng", "name": "开封", "placeKind": "capital", "sourceRefs": ["atlas-page-87-later-han"] },
      "geometry": { "type": "Point", "coordinates": [114.31, 34.8] }
    },
    {
      "type": "Feature",
      "properties": { "id": "place-taiyuan-949", "locationId": "taiyuan", "name": "太原", "placeKind": "prefecture", "sourceRefs": ["atlas-page-87-later-han"] },
      "geometry": { "type": "Point", "coordinates": [112.55, 37.87] }
    },
    {
      "type": "Feature",
      "properties": { "id": "place-youzhou-949", "locationId": "youzhou", "name": "幽州", "placeKind": "prefecture", "sourceRefs": ["atlas-page-87-later-han"] },
      "geometry": { "type": "Point", "coordinates": [116.4, 39.9] }
    },
    {
      "type": "Feature",
      "properties": { "id": "place-yingzhou-hebei-949", "locationId": "yingzhou", "name": "瀛州", "placeKind": "prefecture", "sourceRefs": ["atlas-page-87-later-han"] },
      "geometry": { "type": "Point", "coordinates": [116.1, 38.45] }
    },
    {
      "type": "Feature",
      "properties": { "id": "place-yingzhou-shanxi-949", "locationId": "yingzhou-shanxi", "name": "应州", "placeKind": "prefecture", "sourceRefs": ["atlas-page-87-later-han"] },
      "geometry": { "type": "Point", "coordinates": [113.19, 39.56] }
    },
    {
      "type": "Feature",
      "properties": { "id": "place-jinling-949", "locationId": "jinling", "name": "金陵", "placeKind": "capital", "sourceRefs": ["atlas-page-90-southern-tang"] },
      "geometry": { "type": "Point", "coordinates": [118.8, 32.06] }
    },
    {
      "type": "Feature",
      "properties": { "id": "place-hangzhou-949", "locationId": "hangzhou", "name": "杭州", "placeKind": "capital", "sourceRefs": ["atlas-page-90-wuyue"] },
      "geometry": { "type": "Point", "coordinates": [120.16, 30.27] }
    },
    {
      "type": "Feature",
      "properties": { "id": "place-fuzhou-949", "locationId": "fuzhou", "name": "福州", "placeKind": "prefecture", "sourceRefs": ["atlas-page-90-wuyue"] },
      "geometry": { "type": "Point", "coordinates": [119.3, 26.08] }
    },
    {
      "type": "Feature",
      "properties": { "id": "place-tanzhou-949", "locationId": "tanzhou", "name": "潭州", "placeKind": "capital", "sourceRefs": ["atlas-page-93-chu"] },
      "geometry": { "type": "Point", "coordinates": [112.94, 28.23] }
    },
    {
      "type": "Feature",
      "properties": { "id": "place-chengdu-949", "locationId": "chengdu", "name": "成都", "placeKind": "capital", "sourceRefs": ["atlas-page-91-later-shu"] },
      "geometry": { "type": "Point", "coordinates": [104.07, 30.67] }
    },
    {
      "type": "Feature",
      "properties": { "id": "place-guangzhou-949", "locationId": "guangzhou", "name": "广州", "placeKind": "capital", "sourceRefs": ["atlas-page-92-southern-han"] },
      "geometry": { "type": "Point", "coordinates": [113.26, 23.13] }
    },
    {
      "type": "Feature",
      "properties": { "id": "place-jiangling-949", "locationId": "jiangling", "name": "江陵", "placeKind": "capital", "sourceRefs": ["atlas-page-93-jingnan"] },
      "geometry": { "type": "Point", "coordinates": [112.19, 30.35] }
    },
    {
      "type": "Feature",
      "properties": { "id": "place-shouzhou-949", "locationId": "shouzhou", "name": "寿州", "placeKind": "prefecture", "sourceRefs": ["atlas-page-87-later-han", "atlas-page-90-southern-tang"] },
      "geometry": { "type": "Point", "coordinates": [116.78, 32.58] }
    },
    {
      "type": "Feature",
      "properties": { "id": "place-yangzhou-949", "locationId": "yangzhou", "name": "扬州", "placeKind": "prefecture", "sourceRefs": ["atlas-page-90-southern-tang"] },
      "geometry": { "type": "Point", "coordinates": [119.43, 32.39] }
    }
  ]
}
