{"type":"FeatureCollection","name":"disputed-934","features":[{"type":"Feature","properties":{"id":"yanyun-southern-frontier-934","dynastyId":"later-tang-liao","name":"燕云南缘过渡带","validFromYear":934,"validToYearExclusive":935,"boundaryKind":"disputed","accuracyLevel":"approximate","verificationStatus":"reviewed","sourceRefs":["atlas-page-85-later-tang"],"disputedNote":"依据 934 年《唐》图页所见州镇关系表达辽与后唐之间的军事前沿；该带不是第二条精确国界。","labelLongitude":114.2,"labelLatitude":38.8},"geometry":{"type":"Polygon","coordinates":[[[108.4,39.7],[110.5,39.7],[112.5,39.2],[114.5,38.7],[116,37.9],[117.5,37.7],[119.2,36.8],[119.5,37.2],[117.5,38.3],[116,38.5],[114.5,39.3],[112.5,39.8],[110.5,40.3],[108.6,40.3],[108.4,39.7]]]}}]}
