{"type":"FeatureCollection","name":"realms-934","features":[{"type":"Feature","properties":{"id":"later-tang-934","dynastyId":"later-tang","name":"后唐","validFromYear":934,"validToYearExclusive":935,"boundaryKind":"controlled","accuracyLevel":"reconstructed","verificationStatus":"reviewed","sourceRefs":["atlas-page-85-later-tang"],"disputedNote":"依据 934 年《唐》图页重新概括中原、河东及关中东缘；外围州镇按网页尺度综合。","labelLongitude":112.5,"labelLatitude":35.5},"geometry":{"type":"Polygon","coordinates":[[[102.5,35.5],[103.5,37.8],[105.5,39.5],[108.5,40],[110.5,40],[112.5,39.5],[114.5,39],[116,38.2],[117.5,38],[119,37],[120,35],[120.5,33.8],[119.5,33.4],[118,33.2],[116,33.4],[114,32.8],[112.8,32.3],[111.6,31.8],[109.8,32],[108.5,32.5],[107,33],[105.5,33.5],[103.8,34.2],[102.5,35.5]]]}},{"type":"Feature","properties":{"id":"liao-934","dynastyId":"liao","name":"辽","validFromYear":934,"validToYearExclusive":935,"boundaryKind":"controlled","accuracyLevel":"reconstructed","verificationStatus":"reviewed","sourceRefs":["atlas-page-85-later-tang"],"disputedNote":"辽南缘依据 934 年《唐》图页所见燕云州镇与后唐接界重建；北部外围为图幅尺度概括。","labelLongitude":117.5,"labelLatitude":43.5},"geometry":{"type":"Polygon","coordinates":[[[103.8,43],[105.5,46],[111,49],[119,48.5],[126,46],[128,42],[124,40.3],[121,39.5],[119,37],[117.5,38],[116,38.2],[114.5,39],[112.5,39.5],[110.5,40],[108.5,40],[106,41],[103.8,43]]]}},{"type":"Feature","properties":{"id":"wu-934","dynastyId":"wu","name":"吴","validFromYear":934,"validToYearExclusive":935,"boundaryKind":"controlled","accuracyLevel":"reconstructed","verificationStatus":"reviewed","sourceRefs":["atlas-page-89-wu"],"disputedNote":"依据 934 年《吴》图页重建江淮与江西控制范围；与后唐、吴越、闽、楚接界均作比例尺综合。","labelLongitude":116.5,"labelLatitude":30.2},"geometry":{"type":"Polygon","coordinates":[[[111.6,31.8],[112.8,32.3],[114,32.8],[116,33.4],[118,33.2],[119.5,33.4],[120.5,33.8],[120.8,32.5],[119.7,31.5],[119,31],[118.5,30],[118,28.5],[117,27],[116,26],[114.8,25.8],[113.6,26.2],[114,28],[114.5,29.5],[114,30.8],[113,31.5],[111.6,31.8]]]}},{"type":"Feature","properties":{"id":"wuyue-934","dynastyId":"wuyue","name":"吴越","validFromYear":934,"validToYearExclusive":935,"boundaryKind":"controlled","accuracyLevel":"reconstructed","verificationStatus":"reviewed","sourceRefs":["atlas-page-89-wuyue"],"disputedNote":"依据 934 年《吴越》图页重建两浙核心区；海岸与山地边缘经过网页尺度概括。","labelLongitude":120.4,"labelLatitude":29.6},"geometry":{"type":"Polygon","coordinates":[[[119,31],[119.7,31.5],[120.8,32.5],[121.6,31.8],[122,30.5],[121.7,29],[121,27.5],[120,27],[119,27.4],[118,28.5],[118.5,30],[119,31]]]}},{"type":"Feature","properties":{"id":"min-934","dynastyId":"min","name":"闽","validFromYear":934,"validToYearExclusive":935,"boundaryKind":"controlled","accuracyLevel":"reconstructed","verificationStatus":"reviewed","sourceRefs":["atlas-page-89-min"],"disputedNote":"依据 934 年《闽》图页重建福建核心范围；山地分水岭和沿海轮廓均为网页尺度综合。","labelLongitude":118.3,"labelLatitude":25.8},"geometry":{"type":"Polygon","coordinates":[[[118,28.5],[119,27.4],[120,27],[120.5,26.3],[120,25],[118.8,23.8],[117.2,23.5],[115.5,24.2],[114.8,25.8],[116,26],[117,27],[118,28.5]]]}},{"type":"Feature","properties":{"id":"chu-934","dynastyId":"chu","name":"楚","validFromYear":934,"validToYearExclusive":935,"boundaryKind":"controlled","accuracyLevel":"approximate","verificationStatus":"reviewed","sourceRefs":["atlas-page-93-chu"],"disputedNote":"依据 943 年楚图向前推定 934 年范围；湘西、岭北及荆南周边归属仍待同年资料复核。","labelLongitude":111.2,"labelLatitude":27.8},"geometry":{"type":"Polygon","coordinates":[[[108.5,32.5],[109.8,32],[110.8,31.8],[110.6,30.8],[111.1,30],[111.9,29.8],[112.7,30],[113.2,30.8],[113,31.5],[114,30.8],[114.5,29.5],[114,28],[113.6,26.2],[112.5,25.4],[110.8,25.8],[109.2,26.7],[108,28.2],[108.2,30],[108.5,32.5]]]}},{"type":"Feature","properties":{"id":"later-shu-934","dynastyId":"later-shu","name":"后蜀","validFromYear":934,"validToYearExclusive":935,"boundaryKind":"controlled","accuracyLevel":"approximate","verificationStatus":"reviewed","sourceRefs":["atlas-page-91-later-shu"],"disputedNote":"依据 954 年后蜀图向前推定建国初年的大范围；秦巴东缘与黔北边界未作同年逐州校勘。","labelLongitude":103.5,"labelLatitude":31.2},"geometry":{"type":"Polygon","coordinates":[[[98.5,32],[99.5,34.5],[101,35.2],[102.5,35.5],[103.8,34.2],[105.5,33.5],[107,33],[108.5,32.5],[108.2,30],[107.5,29.2],[105.5,28.5],[103,28.3],[100.5,29],[98.8,30.5],[98.5,32]]]}},{"type":"Feature","properties":{"id":"southern-han-934","dynastyId":"southern-han","name":"南汉","validFromYear":934,"validToYearExclusive":935,"boundaryKind":"controlled","accuracyLevel":"approximate","verificationStatus":"reviewed","sourceRefs":["atlas-page-92-southern-han"],"disputedNote":"依据 954 年南汉图向前推定 934 年岭南范围；桂北、粤闽交界及海岸均待同年证据复核。","labelLongitude":111.4,"labelLatitude":23.3},"geometry":{"type":"Polygon","coordinates":[[[105,24],[106.2,25.8],[109.2,26.7],[110.8,25.8],[112.5,25.4],[113.6,26.2],[114.8,25.8],[115.5,24.2],[116.8,23.5],[116,22],[114,21],[111,20.5],[108,21],[106,22],[105,24]]]}},{"type":"Feature","properties":{"id":"jingnan-934","dynastyId":"jingnan","name":"荆南","validFromYear":934,"validToYearExclusive":935,"boundaryKind":"controlled","accuracyLevel":"approximate","verificationStatus":"reviewed","sourceRefs":["atlas-page-93-jingnan"],"disputedNote":"依据 943 年南平图向前推定 934 年荆州核心区；周边军镇控制强度与名义臣属不以单线定论。","labelLongitude":111.9,"labelLatitude":30.7},"geometry":{"type":"Polygon","coordinates":[[[110.8,31.8],[111.6,31.8],[113,31.5],[113.2,30.8],[112.7,30],[111.9,29.8],[111.1,30],[110.6,30.8],[110.8,31.8]]]}}]}
