{
"type": "FeatureCollection",
"name": "disputed_areas",
"xy_coordinate_resolution": 1e-05,
"features": [
{ "type": "Feature", "properties": { "id": "sixteen-prefectures-frontier-943", "dynastyId": "later-jin-liao", "name": "燕云十六州南缘过渡带", "validFromYear": 943, "validToYearExclusive": 944, "boundaryKind": "disputed", "accuracyLevel": "approximate", "verificationStatus": "reviewed", "sourceRefs": [ "atlas-1935-936-946", "user-943-crosscheck", "natural-earth-land-10m" ], "disputedNote": "十六州已归契丹，但南缘军事控制、州界与图籍表达不完全一致，以交错带而非精确界线表示。", "labelLongitude": 115.2, "labelLatitude": 39.25 }, "geometry": { "type": "MultiPolygon", "coordinates": [ [ [ [ 115.5, 38.8 ], [ 117.95492, 38.21975 ], [ 117.9417, 38.23395 ], [ 117.90016, 38.24616 ], [ 117.83717, 38.2709 ], [ 117.80389, 38.29402 ], [ 117.71608, 38.37851 ], [ 117.66805, 38.44616 ], [ 117.58044, 38.58481 ], [ 117.56597, 38.61251 ], [ 117.54355, 38.62132 ], [ 117.55295, 38.64345 ], [ 117.56047, 38.6571 ], [ 117.55725, 38.67235 ], [ 117.55878, 38.69094 ], [ 117.57322, 38.71375 ], [ 117.57626, 38.77375 ], [ 117.57838, 38.79267 ], [ 117.58399, 38.81159 ], [ 117.70875, 38.98102 ], [ 117.70558, 38.98436 ], [ 117.70436, 38.98615 ], [ 117.70191, 38.99531 ], [ 117.7295, 38.98436 ], [ 117.74326, 38.98225 ], [ 117.77526, 38.98106 ], [ 117.77362, 38.9989 ], [ 117.76577, 39.02616 ], [ 117.75748, 39.04509 ], [ 117.75148, 39.06791 ], [ 117.73782, 39.07839 ], [ 117.72665, 39.08829 ], [ 117.71827, 39.093 ], [ 117.71542, 39.1114 ], [ 117.73756, 39.10639 ], [ 117.75733, 39.11445 ], [ 117.81182, 39.15137 ], [ 117.85779, 39.18237 ], [ 117.0, 39.55 ], [ 113.3, 39.8 ], [ 110.5, 40.05 ], [ 108.0, 39.8 ], [ 107.8, 39.25 ], [ 111.0, 39.35 ], [ 113.4, 39.05 ], [ 115.5, 38.8 ] ] ], [ [ [ 117.78564, 38.93845 ], [ 117.7782, 38.92708 ], [ 117.76213, 38.92928 ], [ 117.76912, 38.94391 ], [ 117.7315, 38.95447 ], [ 117.71371, 38.96644 ], [ 117.69711, 38.93477 ], [ 117.71837, 38.92135 ], [ 117.76096, 38.90936 ], [ 117.78929, 38.90463 ], [ 117.81087, 38.91467 ], [ 117.81479, 38.93045 ], [ 117.78564, 38.93845 ] ] ], [ [ [ 117.8794, 38.94655 ], [ 117.81926, 38.9584 ], [ 117.80885, 38.96423 ], [ 117.75294, 38.97312 ], [ 117.72995, 38.97672 ], [ 117.72045, 38.97394 ], [ 117.73323, 38.96429 ], [ 117.75854, 38.95893 ], [ 117.79613, 38.94984 ], [ 117.83565, 38.93809 ], [ 117.88005, 38.93053 ], [ 117.8794, 38.94655 ] ] ], [ [ [ 117.80323, 38.97961 ], [ 117.8197, 38.97741 ], [ 117.82684, 38.98372 ], [ 117.8108, 39.02719 ], [ 117.79625, 39.0499 ], [ 117.77335, 39.04758 ], [ 117.78052, 39.03191 ], [ 117.79122, 38.98928 ], [ 117.80323, 38.97961 ] ] ] ] } },
{ "type": "Feature", "properties": { "id": "huai-frontier-943", "dynastyId": "later-jin-southern-tang", "name": "淮河南北交错带", "validFromYear": 943, "validToYearExclusive": 944, "boundaryKind": "disputed", "accuracyLevel": "approximate", "verificationStatus": "reviewed", "sourceRefs": [ "atlas-1935-936-946", "user-943-crosscheck", "natural-earth-land-10m" ], "disputedNote": "后晋与南唐之间的州镇归属与河道边界存在时间差和地图综合误差，以淮河走向附近过渡带表示。", "labelLongitude": 117.2, "labelLatitude": 33.4 }, "geometry": { "type": "MultiPolygon", "coordinates": [ [ [ [ 120.75, 33.15 ], [ 120.73761, 33.19955 ], [ 120.73024, 33.2049 ], [ 120.73618, 33.20527 ], [ 120.7161, 33.28559 ], [ 120.70729, 33.28681 ], [ 120.69508, 33.29316 ], [ 120.68002, 33.30801 ], [ 120.66725, 33.3251 ], [ 120.66196, 33.33804 ], [ 120.65577, 33.41315 ], [ 120.65211, 33.42813 ], [ 120.63437, 33.46695 ], [ 120.62778, 33.47801 ], [ 120.57325, 33.53327 ], [ 120.56324, 33.548 ], [ 120.53907, 33.59467 ], [ 120.52597, 33.61066 ], [ 120.48373, 33.64997 ], [ 120.48902, 33.65839 ], [ 120.49513, 33.66218 ], [ 120.5027, 33.66157 ], [ 120.51173, 33.65672 ], [ 120.50587, 33.69717 ], [ 120.50489, 33.73558 ], [ 120.4983, 33.75332 ], [ 120.48243, 33.76512 ], [ 120.46834, 33.7727 ], [ 119.15, 34.0 ], [ 117.5, 33.65 ], [ 115.9, 33.65 ], [ 114.2, 33.25 ], [ 113.9, 32.75 ], [ 116.0, 33.1 ], [ 117.6, 33.1 ], [ 119.25, 33.45 ], [ 120.75, 33.15 ] ] ] ] } }
]
}
