{
  "type": "FeatureCollection",
  "name": "places-934",
  "features": [
    { "type": "Feature", "properties": { "id": "place-luoyang-934", "locationId": "luoyang", "name": "洛阳", "placeKind": "capital", "sourceRefs": ["atlas-page-85-later-tang"] }, "geometry": { "type": "Point", "coordinates": [112.45,34.62] } },
    { "type": "Feature", "properties": { "id": "place-youzhou-934", "locationId": "youzhou", "name": "幽州", "placeKind": "prefecture", "sourceRefs": ["atlas-page-85-later-tang"] }, "geometry": { "type": "Point", "coordinates": [116.4,39.9] } },
    { "type": "Feature", "properties": { "id": "place-yangzhou-934", "locationId": "yangzhou", "name": "扬州", "placeKind": "capital", "sourceRefs": ["atlas-page-89-wu"] }, "geometry": { "type": "Point", "coordinates": [119.43,32.39] } },
    { "type": "Feature", "properties": { "id": "place-hangzhou-934", "locationId": "hangzhou", "name": "杭州", "placeKind": "capital", "sourceRefs": ["atlas-page-89-wuyue"] }, "geometry": { "type": "Point", "coordinates": [120.16,30.27] } },
    { "type": "Feature", "properties": { "id": "place-fuzhou-934", "locationId": "fuzhou", "name": "福州", "placeKind": "capital", "sourceRefs": ["atlas-page-89-min"] }, "geometry": { "type": "Point", "coordinates": [119.3,26.08] } },
    { "type": "Feature", "properties": { "id": "place-tanzhou-934", "locationId": "tanzhou", "name": "潭州", "placeKind": "capital", "sourceRefs": ["atlas-page-93-chu"] }, "geometry": { "type": "Point", "coordinates": [112.94,28.23] } },
    { "type": "Feature", "properties": { "id": "place-chengdu-934", "locationId": "chengdu", "name": "成都", "placeKind": "capital", "sourceRefs": ["atlas-page-91-later-shu"] }, "geometry": { "type": "Point", "coordinates": [104.07,30.67] } },
    { "type": "Feature", "properties": { "id": "place-guangzhou-934", "locationId": "guangzhou", "name": "广州", "placeKind": "capital", "sourceRefs": ["atlas-page-92-southern-han"] }, "geometry": { "type": "Point", "coordinates": [113.26,23.13] } },
    { "type": "Feature", "properties": { "id": "place-jiangling-934", "locationId": "jiangling", "name": "江陵", "placeKind": "capital", "sourceRefs": ["atlas-page-93-jingnan"] }, "geometry": { "type": "Point", "coordinates": [112.19,30.35] } }
  ]
}
