{"type":"FeatureCollection","name":"places","xy_coordinate_resolution":1e-05,"features":[{"type":"Feature","properties":{"id":"place-kaifeng-943","locationId":"kaifeng","name":"开封","dynastyId":"later-jin","placeKind":"capital","year":943,"verificationStatus":"reviewed","sourceRefs":["atlas-1935-936-946","harvard-chgis-context"]},"geometry":{"type":"Point","coordinates":[114.3076,34.7973]}},{"type":"Feature","properties":{"id":"place-luoyang-943","locationId":"luoyang","name":"洛阳","dynastyId":"later-jin","placeKind":"prefecture","year":943,"verificationStatus":"reviewed","sourceRefs":["atlas-1935-936-946","harvard-chgis-context"]},"geometry":{"type":"Point","coordinates":[112.454,34.6197]}},{"type":"Feature","properties":{"id":"place-youzhou-943","locationId":"youzhou","name":"幽州","dynastyId":"liao","placeKind":"prefecture","year":943,"verificationStatus":"reviewed","sourceRefs":["atlas-1935-936-946","harvard-chgis-context"]},"geometry":{"type":"Point","coordinates":[116.4074,39.9042]}},{"type":"Feature","properties":{"id":"place-jinling-943","locationId":"jinling","name":"金陵","dynastyId":"southern-tang","placeKind":"capital","year":943,"verificationStatus":"reviewed","sourceRefs":["atlas-1935-936-946","harvard-chgis-context"]},"geometry":{"type":"Point","coordinates":[118.7969,32.0603]}},{"type":"Feature","properties":{"id":"place-hangzhou-943","locationId":"hangzhou","name":"杭州","dynastyId":"wuyue","placeKind":"capital","year":943,"verificationStatus":"reviewed","sourceRefs":["atlas-1935-936-946","harvard-chgis-context"]},"geometry":{"type":"Point","coordinates":[120.1551,30.2741]}},{"type":"Feature","properties":{"id":"place-fuzhou-943","locationId":"fuzhou","name":"福州","dynastyId":"min","placeKind":"capital","year":943,"verificationStatus":"reviewed","sourceRefs":["atlas-1935-936-946","harvard-chgis-context"]},"geometry":{"type":"Point","coordinates":[119.2965,26.0745]}},{"type":"Feature","properties":{"id":"place-changsha-943","locationId":"changsha","name":"长沙","dynastyId":"chu","placeKind":"capital","year":943,"verificationStatus":"reviewed","sourceRefs":["atlas-1935-936-946","harvard-chgis-context"]},"geometry":{"type":"Point","coordinates":[112.9388,28.2282]}},{"type":"Feature","properties":{"id":"place-guangzhou-943","locationId":"guangzhou","name":"广州","dynastyId":"southern-han","placeKind":"capital","year":943,"verificationStatus":"reviewed","sourceRefs":["atlas-1935-936-946","harvard-chgis-context"]},"geometry":{"type":"Point","coordinates":[113.2644,23.1291]}},{"type":"Feature","properties":{"id":"place-chengdu-943","locationId":"chengdu","name":"成都","dynastyId":"later-shu","placeKind":"capital","year":943,"verificationStatus":"reviewed","sourceRefs":["atlas-1935-936-946","harvard-chgis-context"]},"geometry":{"type":"Point","coordinates":[104.0665,30.5723]}},{"type":"Feature","properties":{"id":"place-jiangling-943","locationId":"jiangling","name":"江陵","dynastyId":"jingnan","placeKind":"capital","year":943,"verificationStatus":"reviewed","sourceRefs":["atlas-1935-936-946","harvard-chgis-context"]},"geometry":{"type":"Point","coordinates":[112.2407,30.3352]}}]}
