{"type":"FeatureCollection","features":[{"type":"Feature","geometry":{"type":"Polygon","coordinates":[[[110.2,36.2],[111.0,35.8],[113.4,36.2],[114.0,37.4],[113.5,39.2],[112.4,40.2],[110.6,39.9],[110.2,36.2]]]},"properties":{"id":"hedong","note":"主要割地的共用切分，非现代省界"}},{"type":"Feature","geometry":{"type":"Polygon","coordinates":[[[113.4,36.2],[114.0,37.4],[113.5,39.2],[116.2,39.2],[117.0,38.5],[116.1,37.2],[115.0,36.0],[113.4,36.2]]]},"properties":{"id":"hebei","note":"主要割地的共用切分，非现代省界"}},{"type":"Feature","geometry":{"type":"Polygon","coordinates":[[[109.8,40.2],[110.7,39.7],[112.0,39.1],[113.4,39.25],[114.7,39.45],[115.5,38.1],[116.7,38.08],[117.1,38.5],[117.9,38.8],[118.6,39.1],[119.5,40.0],[119.0,40.6],[117.5,41.1],[115.0,41.4],[112.8,41.3],[111.2,40.8],[109.8,40.2]]]},"properties":{"id":"yanyun","note":"主要割地的共用切分，非现代省界"}},{"type":"Feature","geometry":{"type":"Polygon","coordinates":[[[115.4,39.2],[116.3,39.1],[117.35,39.2],[117.5,38.8],[116.7,38.08],[115.5,38.1],[115.4,39.2]]]},"properties":{"id":"guannan","note":"主要割地的共用切分，非现代省界"}},{"type":"Feature","geometry":{"type":"Polygon","coordinates":[[[126.0,40.9],[124.3,42.2],[125.0,44.0],[127.0,45.7],[129.0,46.8],[137.0,49.0],[137.0,39.0],[126.0,40.9]]]},"properties":{"id":"balhae","note":"主要割地的共用切分，非现代省界"}},{"type":"Feature","geometry":{"type":"Polygon","coordinates":[[[105.2,33.8],[106.5,33.6],[107.6,34.0],[108.2,34.8],[107.9,35.6],[106.4,36.0],[104.8,35.2],[105.2,33.8]]]},"properties":{"id":"qi","note":"主要割地的共用切分，非现代省界"}},{"type":"Feature","geometry":{"type":"Polygon","coordinates":[[[110.0,33.5],[112.0,32.2],[114.0,30.65],[115.0,30.1],[116.0,29.8],[117.0,30.45],[117.7,30.95],[118.3,31.45],[118.75,32.15],[119.45,32.25],[120.0,32.05],[121.0,31.65],[123.0,31.4],[123.0,36.0],[110.0,36.0],[110.0,33.5]]]},"properties":{"id":"huainan","note":"主要割地的共用切分，非现代省界"}},{"type":"Feature","geometry":{"type":"Polygon","coordinates":[[[118.65,25.2],[119.6,25.15],[122.0,25.2],[122.0,28.5],[119.9,28.5],[119.15,27.3],[118.65,26.5],[118.65,25.2]]]},"properties":{"id":"fuzhou","note":"主要割地的共用切分，非现代省界"}},{"type":"Feature","geometry":{"type":"Polygon","coordinates":[[[116.0,22.8],[121.0,22.8],[121.0,25.2],[118.65,25.2],[118.1,25.5],[117.2,25.15],[116.5,24.7],[116.0,22.8]]]},"properties":{"id":"quanzhou","note":"主要割地的共用切分，非现代省界"}},{"type":"Feature","geometry":{"type":"Polygon","coordinates":[[[108.0,23.4],[111.6,23.4],[111.6,24.8],[111.1,25.6],[110.3,26.2],[109.2,26.4],[108.0,25.7],[108.0,23.4]]]},"properties":{"id":"lingnan-north","note":"主要割地的共用切分，非现代省界"}}]}
