{
  "type": "FeatureCollection",
  "name": "realms-954",
  "features": [
    {
      "type": "Feature",
      "properties": {
        "id": "later-zhou-954", "dynastyId": "later-zhou", "name": "后周",
        "validFromYear": 954, "validToYearExclusive": 955,
        "boundaryKind": "controlled", "accuracyLevel": "approximate",
        "verificationStatus": "reviewed",
        "sourceRefs": ["atlas-page-87-later-han", "atlas-page-88-later-zhou", "atlas-page-88-northern-han"],
        "disputedNote": "依据 949 与 959 年北方同纪年图页之间的政权更替关系推定 954 年后周范围；淮北与河东前沿不作逐州精确主张。",
        "labelLongitude": 114.4, "labelLatitude": 35.0
      },
      "geometry": { "type": "Polygon", "coordinates": [[
        [102.9,35.6],[103.4,37.2],[105.1,38.7],[107.2,39.2],[109.2,39.1],
        [110.25,38.95],[110.4,38.0],[110.9,37.1],[111.7,36.4],[112.6,36.2],
        [113.35,36.7],[113.2,37.6],[113.7,38.6],[113.4,39.5],[114.6,39.3],
        [116.0,38.8],[117.8,37.9],[119.4,37.0],[120.5,35.8],[120.8,34.5],
        [120.5,33.6],[119.0,33.2],[117.3,33.5],[115.5,33.5],[113.8,32.8],
        [112.5,32.0],[111.5,31.6],[110.8,31.6],[109.2,32.1],[107.8,32.7],
        [106.5,33.4],[104.5,34.0],[102.9,35.6]
      ]] }
    },
    {
      "type": "Feature",
      "properties": {
        "id": "northern-han-954", "dynastyId": "northern-han", "name": "北汉",
        "validFromYear": 954, "validToYearExclusive": 955,
        "boundaryKind": "controlled", "accuracyLevel": "approximate",
        "verificationStatus": "reviewed",
        "sourceRefs": ["atlas-page-88-northern-han", "atlas-page-88-later-zhou"],
        "disputedNote": "依据 959 年北汉图并结合 951 年建国后的河东核心区推定 954 年范围；边缘州镇仍需同年资料复核。",
        "labelLongitude": 112.2, "labelLatitude": 38.2
      },
      "geometry": { "type": "Polygon", "coordinates": [[
        [110.25,38.95],[110.55,39.55],[111.2,40.1],[112.0,39.95],[112.65,39.45],
        [113.4,39.5],[113.7,38.6],[113.2,37.6],[113.35,36.7],[112.6,36.2],
        [111.7,36.4],[110.9,37.1],[110.4,38.0],[110.25,38.95]
      ]] }
    },
    {
      "type": "Feature",
      "properties": {
        "id": "liao-954", "dynastyId": "liao", "name": "辽",
        "validFromYear": 954, "validToYearExclusive": 955,
        "boundaryKind": "controlled", "accuracyLevel": "approximate",
        "verificationStatus": "reviewed",
        "sourceRefs": ["atlas-page-87-later-han", "atlas-page-88-later-zhou", "atlas-page-88-northern-han"],
        "disputedNote": "依据 949、959 年图页所见辽南缘与燕云州镇关系推定 954 年范围；北部外围为网页尺度概括。",
        "labelLongitude": 117.4, "labelLatitude": 43.0
      },
      "geometry": { "type": "Polygon", "coordinates": [[
        [103.7,43.0],[105.2,46.2],[111.0,49.0],[119.0,48.5],[126.0,46.0],
        [128.0,42.0],[124.0,40.4],[121.0,39.8],[119.4,39.3],[117.8,37.9],
        [116.0,38.8],[114.6,39.3],[113.4,39.5],[112.65,39.45],[112.0,39.95],
        [111.2,40.1],[110.55,39.55],[110.25,38.95],[109.2,39.1],[107.2,39.2],
        [105.0,40.4],[103.7,43.0]
      ]] }
    },
    {
      "type": "Feature",
      "properties": {
        "id": "southern-tang-954", "dynastyId": "southern-tang", "name": "南唐",
        "validFromYear": 954, "validToYearExclusive": 955,
        "boundaryKind": "controlled", "accuracyLevel": "reconstructed",
        "verificationStatus": "reviewed",
        "sourceRefs": ["atlas-page-90-southern-tang", "atlas-page-90-wuyue", "atlas-page-93-jingnan"],
        "disputedNote": "依据 954 年南唐同纪年图页重建江淮与江西控制范围；州界与军事前沿按网页尺度综合。",
        "labelLongitude": 116.0, "labelLatitude": 29.8
      },
      "geometry": { "type": "Polygon", "coordinates": [[
        [112.5,32.0],[113.8,32.8],[115.5,33.5],[117.3,33.5],[119.0,33.2],
        [120.5,33.6],[120.7,32.5],[119.8,31.7],[119.0,31.3],[118.8,30.0],
        [118.0,28.3],[117.2,27.0],[116.0,26.0],[114.8,25.7],[113.5,26.2],
        [112.3,25.4],[110.5,25.8],[110.2,27.5],[110.0,29.0],[110.6,30.5],
        [111.1,29.8],[111.8,29.7],[112.4,30.0],[112.8,30.6],[113.0,31.4],
        [112.5,32.0]
      ]] }
    },
    {
      "type": "Feature",
      "properties": {
        "id": "wuyue-954", "dynastyId": "wuyue", "name": "吴越",
        "validFromYear": 954, "validToYearExclusive": 955,
        "boundaryKind": "controlled", "accuracyLevel": "reconstructed",
        "verificationStatus": "reviewed",
        "sourceRefs": ["atlas-page-90-wuyue", "atlas-page-90-southern-tang", "natural-earth-land-10m"],
        "disputedNote": "依据 954 年吴越同纪年图页重建两浙及福州方向范围；海岸与闽北边缘按网页尺度概括。",
        "labelLongitude": 120.2, "labelLatitude": 29.0
      },
      "geometry": { "type": "Polygon", "coordinates": [[
        [119.8,31.7],[120.4,32.0],[121.4,31.8],[122.0,30.5],[121.7,29.0],
        [121.0,27.5],[120.3,25.6],[119.3,25.4],[118.0,26.0],[117.2,27.0],
        [118.0,28.3],[118.8,30.0],[119.0,31.3],[119.8,31.7]
      ]] }
    },
    {
      "type": "Feature",
      "properties": {
        "id": "later-shu-954", "dynastyId": "later-shu", "name": "后蜀",
        "validFromYear": 954, "validToYearExclusive": 955,
        "boundaryKind": "controlled", "accuracyLevel": "reconstructed",
        "verificationStatus": "reviewed",
        "sourceRefs": ["atlas-page-91-later-shu", "atlas-page-88-later-zhou", "atlas-page-93-chu"],
        "disputedNote": "依据 954 年后蜀同纪年图页重建四川、汉中与秦岭南缘范围；西部族群区和州界按网页尺度综合。",
        "labelLongitude": 104.2, "labelLatitude": 31.3
      },
      "geometry": { "type": "Polygon", "coordinates": [[
        [98.4,32.2],[99.0,33.4],[99.3,34.0],[101.2,35.2],[102.9,35.6],
        [104.5,34.0],[106.5,33.4],[107.8,32.7],[109.2,32.1],[108.2,30.0],
        [107.8,28.3],[106.4,28.7],[103.8,28.3],[101.0,28.7],[99.0,30.2],
        [98.4,32.2]
      ]] }
    },
    {
      "type": "Feature",
      "properties": {
        "id": "southern-han-954", "dynastyId": "southern-han", "name": "南汉",
        "validFromYear": 954, "validToYearExclusive": 955,
        "boundaryKind": "controlled", "accuracyLevel": "reconstructed",
        "verificationStatus": "reviewed",
        "sourceRefs": ["atlas-page-92-southern-han", "atlas-page-90-southern-tang", "natural-earth-land-10m"],
        "disputedNote": "依据 954 年南汉同纪年图页重建岭南控制范围；族群地区、海岛与交趾方向只表达大范围关系。",
        "labelLongitude": 111.0, "labelLatitude": 23.4
      },
      "geometry": { "type": "Polygon", "coordinates": [[
        [105.0,24.0],[105.8,25.2],[106.4,26.2],[107.8,28.3],[108.8,26.8],
        [110.5,25.8],[112.3,25.4],[113.5,26.2],[114.8,25.7],[116.0,26.0],
        [117.2,24.2],[116.3,22.5],[114.0,21.0],[111.0,20.5],[108.0,21.0],
        [106.0,22.0],[105.0,24.0]
      ]] }
    },
    {
      "type": "Feature",
      "properties": {
        "id": "jingnan-954", "dynastyId": "jingnan", "name": "荆南",
        "validFromYear": 954, "validToYearExclusive": 955,
        "boundaryKind": "controlled", "accuracyLevel": "approximate",
        "verificationStatus": "reviewed",
        "sourceRefs": ["atlas-page-93-jingnan", "atlas-page-90-southern-tang", "atlas-page-88-later-zhou"],
        "disputedNote": "依据 943 年南平图及 954 年南唐、后周邻接关系推定荆南核心范围；核心州府以外不作精确边界主张。",
        "labelLongitude": 111.8, "labelLatitude": 30.6
      },
      "geometry": { "type": "Polygon", "coordinates": [[
        [110.8,31.6],[111.5,31.6],[112.5,32.0],[113.0,31.4],[112.8,30.6],
        [112.4,30.0],[111.8,29.7],[111.1,29.8],[110.6,30.5],[110.8,31.6]
      ]] }
    }
  ]
}
