{"type":"FeatureCollection","name":"realms-949","features":[{"type":"Feature","properties":{"id":"later-han-949","dynastyId":"later-han","name":"后汉","validFromYear":949,"validToYearExclusive":950,"boundaryKind":"controlled","accuracyLevel":"reconstructed","verificationStatus":"reviewed","sourceRefs":["atlas-page-87-later-han"],"disputedNote":"依据 949 年《汉》图页重新概括中原、河东与淮北范围；州界和边缘军镇按网页尺度综合。","labelLongitude":114.2,"labelLatitude":35.0},"geometry":{"type":"Polygon","coordinates":[[[102.8,35.7],[103.4,37.2],[105.2,38.5],[107.3,39.3],[109.2,39.1],[111.0,39.0],[113.0,38.7],[114.5,38.3],[115.6,38.0],[117.5,38.0],[119.2,37.2],[120.3,36.0],[120.8,34.2],[120.4,33.5],[119.0,33.2],[117.3,33.5],[115.5,33.5],[113.8,32.8],[112.5,32.0],[110.8,31.6],[109.2,32.1],[107.8,32.7],[106.5,33.4],[104.5,34.0],[102.8,35.7]]]}},{"type":"Feature","properties":{"id":"liao-949","dynastyId":"liao","name":"辽","validFromYear":949,"validToYearExclusive":950,"boundaryKind":"controlled","accuracyLevel":"reconstructed","verificationStatus":"reviewed","sourceRefs":["atlas-page-87-later-han"],"disputedNote":"依据 949 年《汉》图页所见辽南缘、燕云州镇与后汉接界重建；北部外围为网页尺度概括。","labelLongitude":117.2,"labelLatitude":43.0},"geometry":{"type":"Polygon","coordinates":[[[103.8,43.0],[105.5,46.0],[111.0,49.0],[119.0,48.5],[126.0,46.0],[128.0,42.0],[124.0,40.3],[121.0,39.5],[119.2,37.2],[117.5,38.0],[115.6,38.0],[114.5,38.3],[113.0,38.7],[111.0,39.0],[109.2,39.1],[107.3,39.3],[105.0,40.5],[103.8,43.0]]]}},{"type":"Feature","properties":{"id":"southern-tang-949","dynastyId":"southern-tang","name":"南唐","validFromYear":949,"validToYearExclusive":950,"boundaryKind":"controlled","accuracyLevel":"approximate","verificationStatus":"reviewed","sourceRefs":["atlas-page-90-southern-tang","atlas-page-90-wuyue","atlas-page-93-chu"],"disputedNote":"依据 954 年南唐分图向前推定 949 年江淮与江南大范围；淮河州镇及闽地变化尚待 949 年同纪年资料复核。","labelLongitude":116.5,"labelLatitude":30.2},"geometry":{"type":"Polygon","coordinates":[[[113.8,32.8],[115.5,33.5],[117.3,33.5],[119.0,33.2],[120.4,33.5],[120.7,32.5],[120.0,31.8],[119.0,31.3],[118.8,30.0],[118.0,28.3],[117.2,27.0],[116.0,26.0],[114.8,25.7],[113.5,26.2],[114.0,28.0],[114.5,29.5],[114.0,30.8],[113.0,31.4],[113.8,32.8]]]}},{"type":"Feature","properties":{"id":"wuyue-949","dynastyId":"wuyue","name":"吴越","validFromYear":949,"validToYearExclusive":950,"boundaryKind":"controlled","accuracyLevel":"approximate","verificationStatus":"reviewed","sourceRefs":["atlas-page-90-wuyue","atlas-page-90-southern-tang","natural-earth-land-10m"],"disputedNote":"依据 954 年吴越分图向前推定 949 年两浙与福州方向大范围；沿海和闽北州界仍为概括表达。","labelLongitude":120.2,"labelLatitude":29.0},"geometry":{"type":"Polygon","coordinates":[[[119.0,31.3],[120.0,31.8],[121.5,31.7],[122.0,30.5],[121.7,29.0],[121.0,27.5],[120.3,25.6],[119.3,25.4],[118.0,26.0],[117.2,27.0],[118.0,28.3],[118.8,30.0],[119.0,31.3]]]}},{"type":"Feature","properties":{"id":"chu-949","dynastyId":"chu","name":"楚","validFromYear":949,"validToYearExclusive":950,"boundaryKind":"controlled","accuracyLevel":"approximate","verificationStatus":"reviewed","sourceRefs":["atlas-page-93-chu","atlas-page-93-jingnan","atlas-page-90-southern-tang"],"disputedNote":"依据 943 年楚图向后推定 949 年湖南控制范围，并按荆南与南唐邻接关系重新概括；未外推到 951 年灭亡后的局势。","labelLongitude":111.3,"labelLatitude":27.8},"geometry":{"type":"Polygon","coordinates":[[[109.2,32.1],[110.8,31.6],[110.6,30.5],[111.1,29.8],[111.8,29.7],[112.4,30.0],[112.8,30.6],[113.0,31.4],[114.0,30.8],[114.5,29.5],[114.0,28.0],[113.5,26.2],[112.3,25.4],[110.5,25.8],[108.8,26.8],[107.8,28.3],[108.2,30.0],[109.2,32.1]]]}},{"type":"Feature","properties":{"id":"later-shu-949","dynastyId":"later-shu","name":"后蜀","validFromYear":949,"validToYearExclusive":950,"boundaryKind":"controlled","accuracyLevel":"approximate","verificationStatus":"reviewed","sourceRefs":["atlas-page-91-later-shu","atlas-page-87-later-han","atlas-page-93-chu"],"disputedNote":"依据 954 年后蜀分图向前推定 949 年四川与秦岭南缘范围，并参照同年后汉图校勘北界；边缘州镇尚未逐州复核。","labelLongitude":104.2,"labelLatitude":31.3},"geometry":{"type":"Polygon","coordinates":[[[98.4,32.2],[99.3,34.0],[101.2,35.2],[102.8,35.7],[104.5,34.0],[106.5,33.4],[107.8,32.7],[109.2,32.1],[108.2,30.0],[107.8,28.3],[106.4,28.7],[103.8,28.3],[101.0,28.7],[99.0,30.2],[98.4,32.2]]]}},{"type":"Feature","properties":{"id":"southern-han-949","dynastyId":"southern-han","name":"南汉","validFromYear":949,"validToYearExclusive":950,"boundaryKind":"controlled","accuracyLevel":"approximate","verificationStatus":"reviewed","sourceRefs":["atlas-page-92-southern-han","atlas-page-93-chu","natural-earth-land-10m"],"disputedNote":"依据 954 年南汉分图向前推定 949 年岭南大范围，并参照 943 年楚图校勘北缘；族群地区、海岛与交趾方向均为概括。","labelLongitude":111.0,"labelLatitude":23.5},"geometry":{"type":"Polygon","coordinates":[[[105.0,24.0],[106.2,25.7],[108.8,26.8],[110.5,25.8],[112.3,25.4],[113.5,26.2],[114.8,25.7],[116.0,26.0],[117.2,24.2],[116.3,22.5],[114.0,21.0],[111.0,20.5],[108.0,21.0],[106.0,22.0],[105.0,24.0]]]}},{"type":"Feature","properties":{"id":"jingnan-949","dynastyId":"jingnan","name":"荆南","validFromYear":949,"validToYearExclusive":950,"boundaryKind":"controlled","accuracyLevel":"approximate","verificationStatus":"reviewed","sourceRefs":["atlas-page-93-jingnan","atlas-page-87-later-han","atlas-page-93-chu"],"disputedNote":"依据 943 年南平分图向后推定 949 年荆南核心区，并参照同年后汉和楚的相邻关系概括；核心州府外不作精确主张。","labelLongitude":111.8,"labelLatitude":30.6},"geometry":{"type":"Polygon","coordinates":[[[110.8,31.6],[111.5,31.6],[112.5,32.0],[113.0,31.4],[112.8,30.6],[112.4,30.0],[111.8,29.7],[111.1,29.8],[110.6,30.5],[110.8,31.6]]]}}]}
